IRIDIUM 159             
1 43578U 18061K   25209.48030575  .00000049  00000+0  10493-4 0  9996
2 43578  86.3994 191.9563 0002490  88.2115 271.9366 14.34218152366989
IRIDIUM 180             
1 43922U 19002A   25209.54957008  .00000146  00000+0  44967-4 0  9992
2 43922  86.3998 128.9111 0002279  81.0202 279.1251 14.34216650342605
IRIDIUM 176             
1 43923U 19002B   25209.29286725  .00000923  00000+0  14256-3 0  9996
2 43923  86.6122 129.0075 0001992  73.5128 286.6308 14.72252215351596
IRIDIUM 168             
1 43924U 19002C   25209.33392326  .00000044  00000+0  86136-5 0  9999
2 43924  86.4000 129.0694 0002205  83.3184 276.8263 14.34217654342559
IRIDIUM 173             
1 43925U 19002D   25209.32123444  .00000217  00000+0  70512-4 0  9994
2 43925  86.3972 128.9790 0001845 109.7529 250.3866 14.34222150342538
IRIDIUM 169             
1 43926U 19002E   25209.60923654  .00000303  00000+0  92559-4 0  9998
2 43926  86.4277 160.4449 0001360  51.2297 308.9023 14.38608162343705
IRIDIUM 172             
1 43927U 19002F   25209.31489550  .00000234  00000+0  76589-4 0  9997
2 43927  86.3996 128.9864 0002480  80.9269 279.2208 14.34216995342546
IRIDIUM 175             
1 43928U 19002G   25209.62773009  .00000783  00000+0  12025-3 0  9990
2 43928  86.1468  79.0160 0001692 108.9703 251.1697 14.72250097351636
